E-ST@R-II               
1 41459U 16025D   22151.89226051  .00008636  00000+0  37862-3 0  9992
2 41459  98.1839 315.8240 0144933 325.8820  33.3132 15.13220632334996
AAUSAT 4                
1 41460U 16025E   22151.74276080  .00014074  00000+0  54892-3 0  9990
2 41460  98.1787 321.7152 0126128 303.0320  55.8668 15.18904842335404
BEESAT-4                
1 41619U 16040W   22151.12090602  .00009827  00000+0  33286-3 0  9993
2 41619  97.2176 202.2174 0010386 169.1480 190.9988 15.30718858318079
RAVAN                   
1 41849U 16067B   22151.10885145  .00002475  00000+0  20021-3 0  9994
2 41849  97.9984 287.5871 0017890  39.7146 320.5383 15.00639105303399
CELTEE 1                
1 41850U 16067C   22151.35161818  .00001352  00000+0  11851-3 0  9991
2 41850  97.9950 282.9566 0008737  37.0610 323.1214 14.98397527303196
OPTICUBE 04             
1 41851U 16067D   22151.32456150  .00001236  00000+0  11062-3 0  9990
2 41851  97.9947 282.0035 0009950  45.5973 314.6062 14.97751260303147
AEROCUBE 8D             
1 41852U 16067E   22151.07288905  .00001165  00000+0  10311-3 0  9991
2 41852  97.9929 281.7369 0010089  41.3505 318.8479 14.98290662303091
AEROCUBE 8C             
1 41853U 16067F   22151.32083102  .00002274  00000+0  19632-3 0  9999
2 41853  97.9942 281.8151 0010988  46.9533 313.2607 14.98270626303121
PROMETHEUS 2-1          
1 41854U 16067G   22151.10242687  .00003150  00000+0  26247-3 0  9995
2 41854  97.9914 282.6216 0009777  50.5200 309.6885 14.99360820303144
PROMETHEUS 2-3          
1 41855U 16067H   22151.36218308  .00002889  00000+0  24102-3 0  9993
2 41855  97.9916 282.9672 0008922  44.7960 315.3981 14.99384174303188
INS-1B                  
1 41954U 17008G   22151.12316111  .00009351  00000+0  31319-3 0  9993
2 41954  97.2587 211.3705 0006035 299.1199  60.9438 15.31135013294093
BGUSAT                  
1 41999U 17008BD  22151.45070623  .00022818  00000+0  57286-3 0  9997
2 41999  97.2819 221.9244 0003802 275.8897  84.1916 15.40001370294020
DIDO-2                  
1 42000U 17008BE  22151.14009611  .00004851  00000+0  17815-3 0  9997
2 42000  97.2573 210.8714 0006289 330.3919  29.6964 15.28371579293421
PEASSS                  
1 42015U 17008BV  22151.14852147  .00007773  00000+0  25947-3 0  9994
2 42015  97.2640 214.5929 0003994 326.8307  33.2684 15.31309338294128
AL-FARABI 1             
1 42016U 17008BW  22151.13554201  .00012477  00000+0  38075-3 0  9997
2 42016  97.2705 217.4958 0003373 317.4311  42.6670 15.34053366294395
NAYIF-1 (EO-88)         
1 42017U 17008BX  22151.15203182  .00012209  00000+0  37116-3 0  9997
2 42017  97.2697 217.5222 0003469 313.6203  46.4752 15.34180226294428
UCLSAT                  
1 42765U 17036A   22151.83821988  .00009065  00000+0  31945-3 0  9993
2 42765  97.1980 195.0253 0009901  35.1185 325.0706 15.29454738274720
LITUANICASAT-2          
1 42768U 17036D   22151.38977494  .00019047  00000+0  56383-3 0  9994
2 42768  97.2066 197.1215 0009945  18.4541 341.7061 15.34878715274638
AALTO-1                 
1 42775U 17036L   22151.05101827  .00005742  00000+0  22934-3 0  9997
2 42775  97.1982 189.4479 0013263  36.2195 323.9939 15.25435634274128
URSA MAIOR              
1 42776U 17036M   22151.10370391  .00005829  00000+0  22914-3 0  9992
2 42776  97.1995 190.2096 0012907  35.2279 324.9811 15.25967376274161
COMPASS 2               
1 42777U 17036N   22151.05663725  .00013453  00000+0  43628-3 0  9990
2 42777  97.2054 196.2477 0009513  25.4714 334.6995 15.32051503274482
DIAMOND RED             
1 42783U 17036U   22151.08987625  .00006368  00000+0  24086-3 0  9992
2 42783  97.2001 192.4862 0011390  41.2829 318.9270 15.27230069274296
PEGASUS                 
1 42784U 17036V   22151.09602696  .00007465  00000+0  27068-3 0  9998
2 42784  97.1997 193.5929 0010853  39.1856 321.0168 15.28573692274367
DIAMOND GREEN           
1 42785U 17036W   22151.08838307  .00006704  00000+0  25321-3 0  9993
2 42785  97.2005 192.5489 0011295  42.3393 317.8716 15.27259949274369
DIAMOND BLUE            
1 42786U 17036X   22151.34918172  .00006849  00000+0  25871-3 0  9992
2 42786  97.2005 192.7933 0011271  41.8544 318.3555 15.27246877274321
NUDTSAT                 
1 42787U 17036Y   22151.59273613  .00021725  00000+0  67850-3 0  9997
2 42787  97.2036 198.0418 0009115  26.4950 333.6756 15.33160855274519
SUCHAI                  
1 42788U 17036Z   22151.11165431  .00009929  00000+0  34095-3 0  9991
2 42788  97.2008 195.1921 0009856  35.3456 324.8437 15.30274307274533
SKCUBE                  
1 42789U 17036AA  22150.64213349  .00009573  00000+0  33612-3 0  9990
2 42789  97.2003 194.2242 0010084  37.9042 322.2906 15.29558421274352
VZLUSAT-1               
1 42790U 17036AB  22150.88081601  .00014124  00000+0  44474-3 0  9998
2 42790  97.2031 197.3210 0008371  31.3252 328.8487 15.32994897274554
ROBUSTA-1B              
1 42792U 17036AD  22150.86514768  .00010132  00000+0  35034-3 0  9990
2 42792  97.2002 194.9893 0009599  37.7138 322.4774 15.30045984274438
CICERO 6                
1 42793U 17036AE  22151.10906881  .00005851  00000+0  22209-3 0  9992
2 42793  97.1982 193.0628 0009866  42.2849 317.9149 15.27163034274425
CORVUS BC2              
1 42846U 17042X   22151.86029056  .00000928  00000+0  94616-4 0  9993
2 42846  97.4249  10.1080 0010817  57.9257 302.3012 14.92860022265809
CORVUS BC1              
1 42847U 17042Y   22151.07075526  .00001072  00000+0  10821-3 0  9996
2 42847  97.4251   9.6656 0010497  59.5092 300.7164 14.92963143265699
MIRATA                  
1 43015U 17073C   22151.42870283  .00003089  00000+0  23004-3 0  9997
2 43015  97.6763  47.3705 0237974 236.9084 120.9084 14.83822680244740
MAKERSAT 0              
1 43016U 17073D   22151.17080627  .00002409  00000+0  18412-3 0  9997
2 43016  97.6782  46.7413 0244564 241.9240 115.7054 14.82203257244633
AEROCUBE 7B (OCSD B)    
1 43042U 17071F   22151.23987754  .00121202  00000+0  74305-3 0  9994
2 43042  51.6313 131.7928 0006332  67.4322 292.7347 15.76389539252978
AEROCUBE 7C (OCSD C)    
1 43043U 17071G   22151.12648754  .00103732  00000+0  69449-3 0  9998
2 43043  51.6296 134.0038 0005919  66.0781 294.0838 15.74442106252902
ASGARDIA 1              
1 43049U 17071N   22151.20149571  .00074875  00000+0  59859-3 0  9995
2 43049  51.6299 135.4560 0005074  53.7038 306.4427 15.70401176252894
PROPCUBE 2 (FAUNA)      
1 43052U 17071R   22150.64242155  .00127076  00000+0  74238-3 0  9998
2 43052  51.6251 129.3842 0005867  61.2340 298.9249 15.77461414252919
CORVUS BC3              
1 43118U 18004H   22151.13734574  .00005792  00000+0  22004-3 0  9998
2 43118  97.3630 224.0687 0010547  69.7353 290.5019 15.27147949243572
MICROMAS-2A             
1 43131U 18004W   22151.21831892  .00017845  00000+0  51654-3 0  9998
2 43131  97.3762 230.4641 0006690  61.6210 298.5707 15.35629233243933
SPACEBEE-4              
1 43139U 18004AE  22151.18859307  .00034923  00000+0  78826-3 0  9999
2 43139  97.3855 235.1070 0004113  59.7078 300.4576 15.43129444244183
SPACEBEE-3              
1 43140U 18004AF  22151.30404663  .00065934  00000+0  10902-2 0  9992
2 43140  97.3896 238.7007 0000902  66.8036 293.3311 15.51999726244403
SPACEBEE-2              
1 43141U 18004AG  22151.21096167  .00090307  00000+0  12804-2 0  9994
2 43141  97.3914 239.9837 0000571 267.8379  92.2810 15.56149601244464
SPACEBEE-1              
1 43142U 18004AH  22151.32245004  .00132404  00000+0  14721-2 0  9998
2 43142  97.3912 241.6418 0003503 257.3250 102.7616 15.62444595244567
CICERO 7                
1 43143U 18004AJ  22151.16951345  .00011635  00000+0  36507-3 0  9992
2 43143  97.3739 230.0245 0006585  71.7935 288.4023 15.33174008243926
GOMX-4B                 
1 43196U 18015E   22151.37807537  .00004738  00000+0  18140-3 0  9997
2 43196  97.5315 290.6050 0018624 116.1770 244.1386 15.26894115240557
GOMX-4A                 
1 43197U 18015F   22151.77344839  .00008649  00000+0  31202-3 0  9992
2 43197  97.5300 291.7583 0018386 114.8779 353.0352 15.28604750240676
AEROCUBE 12A            
1 43556U 18046C   22151.61928977  .00013426  00000+0  35436-3 0  9991
2 43556  51.6374 265.8929 0007683 333.4085  26.6504 15.38746031216721
AEROCUBE 12B            
1 43557U 18046D   22150.88578646  .00011394  00000+0  32042-3 0  9996
2 43557  51.6385 273.6789 0007517 328.1073  31.9455 15.36943276216507
SURFSAT                 
1 43614U 18070B   22151.39257177  .00031346  00000+0  48034-3 0  9994
2 43614  93.0320  91.5090 0015111  88.9221 271.3772 15.54099788208410
CP7 (DAVE)              
1 43615U 18070C   22151.06652414  .00026974  00000+0  43063-3 0  9990
2 43615  93.0310  91.2389 0015366  90.3040 269.9982 15.52978208208334
ELFIN-B                 
1 43616U 18070D   22151.57739971  .00064010  00000+0  64973-3 0  9997
2 43616  93.0215  92.5249 0013838  87.3670 272.9182 15.64887536208719
ELFIN-A                 
1 43617U 18070E   22151.79535684  .00071929  00000+0  67384-3 0  9993
2 43617  93.0285  93.9287 0012953  85.2383 275.0365 15.66890035208794
CUBEBEL-1 (BSUSAT-1)    
1 43666U 18083E   22151.77777481  .00010723  00000+0  45749-3 0  9998
2 43666  97.4205 180.6528 0014041  38.4333  79.7233 15.23004298198944
CICERO 10               
1 43690U 18088A   22150.84422615  .00006079  00000+0  24435-3 0  9991
2 43690  85.0346 328.0281 0012593 204.7546 155.3095 15.24631938197076
IRVINE01                
1 43693U 18088D   22151.21510329  .00028008  00000+0  77580-3 0  9991
2 43693  85.0277 322.5264 0013221 170.0211 190.1304 15.36742492197571
PROXIMA I               
1 43694U 18088E   22150.88800525  .00007090  00000+0  27149-3 0  9998
2 43694  85.0279 324.7336 0017514 172.4893 187.6617 15.26206316197295
PROXIMA II              
1 43696U 18088G   22151.21576679  .00007010  00000+0  26850-3 0  9998
2 43696  85.0280 324.5328 0017599 171.2752 188.8802 15.26192206197338
